{"type": "FeatureCollection", "features": [ {"type": "Feature", "properties": {"norad_id": 35432, "name": "COSMOS 2251 DEB", "group": "cosmos-2251-debris", "lat": -14.992735054895416, "lon": -19.712874239970418, "alt_km": 488.6884434971116, "timestamp": "2025-12-27T08:36:18.780689+00:00", "meta": {"OBJECT_NAME": "COSMOS 2251 DEB", "OBJECT_ID": "1993-036AKA", "EPOCH": "2025-12-26T16:55:32.526912", "MEAN_MOTION": 15.24667745, "ECCENTRICITY": 0.00123172, "INCLINATION": 74.0222, "RA_OF_ASC_NODE": 346.0679, "ARG_OF_PERICENTER": 316.4683, "MEAN_ANOMALY": 43.5544, "EPHEMERIS_TYPE": 0, "CLASSIFICATION_TYPE": "U", "NORAD_CAT_ID": 35432, "ELEMENT_SET_NO": 999, "REV_AT_EPOCH": 87716, "BSTAR": 0.0017906457, "MEAN_MOTION_DOT": 0.00044578, "MEAN_MOTION_DDOT": 0}, "tle": {"line1": "1 35432U 93036AKA 25360.70523758  .00044578  00000+0  17906-2 0  9993", "line2": "2 35432  74.0222 346.0679 0012317 316.4683  43.5544 15.24667745877167"}}, "geometry": {"type": "Point", "coordinates": [-19.712874239970418, -14.992735054895416]}}, {"type": "Feature", "properties": {"norad_id": 35433, "name": "COSMOS 2251 DEB", "group": "cosmos-2251-debris", "lat": 27.741530509320146, "lon": 123.00034075762846, "alt_km": 790.2475036208843, "timestamp": "2025-12-27T08:36:18.780699+00:00", "meta": {"OBJECT_NAME": "COSMOS 2251 DEB", "OBJECT_ID": "1993-036AKB", "EPOCH": "2025-12-27T04:50:47.077728", "MEAN_MOTION": 14.34772749, "ECCENTRICITY": 0.0026291, "INCLINATION": 74.0354, "RA_OF_ASC_NODE": 311.9463, "ARG_OF_PERICENTER": 3.1216, "MEAN_ANOMALY": 59.0344, "EPHEMERIS_TYPE": 0, "CLASSIFICATION_TYPE": "U", "NORAD_CAT_ID": 35433, "ELEMENT_SET_NO": 999, "REV_AT_EPOCH": 86788, "BSTAR": 0.00037645, "MEAN_MOTION_DOT": 1.045e-05, "MEAN_MOTION_DDOT": 0}, "tle": {"line1": "1 35433U 93036AKB 25361.20193377  .00001045  00000+0  37645-3 0  9995", "line2": "2 35433  74.0354 311.9463 0026291   3.1216  59.0344 14.34772749867883"}}, "geometry": {"type": "Point", "coordinates": [123.00034075762846, 27.741530509320146]}}, {"type": "Feature", "properties": {"norad_id": 35434, "name": "COSMOS 2251 DEB", "group": "cosmos-2251-debris", "lat": -46.900549824117896, "lon": 169.43224174569778, "alt_km": 776.9219755425711, "timestamp": "2025-12-27T08:36:18.780709+00:00", "meta": {"OBJECT_NAME": "COSMOS 2251 DEB", "OBJECT_ID": "1993-036AKC", "EPOCH": "2025-12-23T05:28:40.876896", "MEAN_MOTION": 14.25716012, "ECCENTRICITY": 0.00872798, "INCLINATION": 74.0389, "RA_OF_ASC_NODE": 194.6941, "ARG_OF_PERICENTER": 263.2384, "MEAN_ANOMALY": 95.8825, "EPHEMERIS_TYPE": 0, "CLASSIFICATION_TYPE": "U", "NORAD_CAT_ID": 35434, "ELEMENT_SET_NO": 999, "REV_AT_EPOCH": 86267, "BSTAR": 0.00051853095, "MEAN_MOTION_DOT": 1.255e-05, "MEAN_MOTION_DDOT": 0}, "tle": {"line1": "1 35434U 93036AKC 25357.22825089  .00001255  00000+0  51853-3 0  9995", "line2": "2 35434  74.0389 194.6941 0087279 263.2384  95.8825 14.25716012862672"}}, "geometry": {"type": "Point", "coordinates": [169.43224174569778, -46.900549824117896]}}, {"type": "Feature", "properties": {"norad_id": 35435, "name": "COSMOS 2251 DEB", "group": "cosmos-2251-debris", "lat": 45.69006808489409, "lon": 92.36884378320406, "alt_km": 630.9788555439782, "timestamp": "2025-12-27T08:36:18.780719+00:00", "meta": {"OBJECT_NAME": "COSMOS 2251 DEB", "OBJECT_ID": "1993-036AKD", "EPOCH": "2025-12-26T23:27:11.820960", "MEAN_MOTION": 14.78894753, "ECCENTRICITY": 0.0006385, "INCLINATION": 74.0104, "RA_OF_ASC_NODE": 76.0379, "ARG_OF_PERICENTER": 173.0542, "MEAN_ANOMALY": 5.8137, "EPHEMERIS_TYPE": 0, "CLASSIFICATION_TYPE": "U", "NORAD_CAT_ID": 35435, "ELEMENT_SET_NO": 999, "REV_AT_EPOCH": 87749, "BSTAR": 0.0023962, "MEAN_MOTION_DOT": 0.00017681, "MEAN_MOTION_DDOT": 0}, "tle": {"line1": "1 35435U 93036AKD 25360.97722015  .00017681  00000+0  23962-2 0  9996", "line2": "2 35435  74.0104  76.0379 0006385 173.0542   5.8137 14.78894753877499"}}, "geometry": {"type": "Point", "coordinates": [92.36884378320406, 45.69006808489409]}}, {"type": "Feature", "properties": {"norad_id": 35439, "name": "COSMOS 2251 DEB", "group": "cosmos-2251-debris", "lat": 36.502032654775284, "lon": -82.549501608404, "alt_km": 1036.6459874212005, "timestamp": "2025-12-27T08:36:18.780730+00:00", "meta": {"OBJECT_NAME": "COSMOS 2251 DEB", "OBJECT_ID": "1993-036AKH", "EPOCH": "2025-12-23T01:03:41.280192", "MEAN_MOTION": 13.9285581, "ECCENTRICITY": 0.02428241, "INCLINATION": 74.0195, "RA_OF_ASC_NODE": 117.083, "ARG_OF_PERICENTER": 284.1415, "MEAN_ANOMALY": 194.5054, "EPHEMERIS_TYPE": 0, "CLASSIFICATION_TYPE": "U", "NORAD_CAT_ID": 35439, "ELEMENT_SET_NO": 999, "REV_AT_EPOCH": 84104, "BSTAR": 0.0017241175, "MEAN_MOTION_DOT": 2.822e-05, "MEAN_MOTION_DDOT": 0}, "tle": {"line1": "1 35439U 93036AKH 25357.04422778  .00002822  00000+0  17241-2 0  9991", "line2": "2 35439  74.0195 117.0830 0242824 284.1415 194.5054 13.92855810841046"}}, "geometry": {"type": "Point", "coordinates": [-82.549501608404, 36.502032654775284]}}, {"type": "Feature", "properties": {"norad_id": 35440, "name": "COSMOS 2251 DEB", "group": "cosmos-2251-debris", "lat": -64.87918662785263, "lon": 36.98519732984566, "alt_km": 651.8664883421034, "timestamp": "2025-12-27T08:36:18.780740+00:00", "meta": {"OBJECT_NAME": "COSMOS 2251 DEB", "OBJECT_ID": "1993-036AKJ", "EPOCH": "2025-12-26T18:23:12.577920", "MEAN_MOTION": 14.68880291, "ECCENTRICITY": 0.00699138, "INCLINATION": 74.0164, "RA_OF_ASC_NODE": 180.4489, "ARG_OF_PERICENTER": 318.4907, "MEAN_ANOMALY": 41.0964, "EPHEMERIS_TYPE": 0, "CLASSIFICATION_TYPE": "U", "NORAD_CAT_ID": 35440, "ELEMENT_SET_NO": 999, "REV_AT_EPOCH": 68971, "BSTAR": 0.00042501367, "MEAN_MOTION_DOT": 2.545e-05, "MEAN_MOTION_DDOT": 0}, "tle": {"line1": "1 35440U 93036AKJ 25360.76611780  .00002545  00000+0  42501-3 0  9999", "line2": "2 35440  74.0164 180.4489 0069913 318.4907  41.0964 14.68880291689716"}}, "geometry": {"type": "Point", "coordinates": [36.98519732984566, -64.87918662785263]}}, {"type": "Feature", "properties": {"norad_id": 35441, "name": "COSMOS 2251 DEB", "group": "cosmos-2251-debris", "lat": -57.787722257993444, "lon": 117.08809383073795, "alt_km": 686.3218703653083, "timestamp": "2025-12-27T08:36:18.780750+00:00", "meta": {"OBJECT_NAME": "COSMOS 2251 DEB", "OBJECT_ID": "1993-036AKK", "EPOCH": "2025-12-24T12:12:34.900128", "MEAN_MOTION": 14.62759756, "ECCENTRICITY": 0.0036013, "INCLINATION": 74.1345, "RA_OF_ASC_NODE": 275.6818, "ARG_OF_PERICENTER": 167.8993, "MEAN_ANOMALY": 192.3049, "EPHEMERIS_TYPE": 0, "CLASSIFICATION_TYPE": "U", "NORAD_CAT_ID": 35441, "ELEMENT_SET_NO": 999, "REV_AT_EPOCH": 87602, "BSTAR": 0.0014950847, "MEAN_MOTION_DOT": 7.673e-05, "MEAN_MOTION_DDOT": 0}, "tle": {"line1": "1 35441U 93036AKK 25358.50873727  .00007673  00000+0  14951-2 0  9994", "line2": "2 35441  74.1345 275.6818 0036013 167.8993 192.3049 14.62759756876029"}}, "geometry": {"type": "Point", "coordinates": [117.08809383073795, -57.787722257993444]}}, {"type": "Feature", "properties": {"norad_id": 35442, "name": "COSMOS 2251 DEB", "group": "cosmos-2251-debris", "lat": -19.142178008773147, "lon": -104.18198942898596, "alt_km": 621.4459585530913, "timestamp": "2025-12-27T08:36:18.780760+00:00", "meta": {"OBJECT_NAME": "COSMOS 2251 DEB", "OBJECT_ID": "1993-036AKL", "EPOCH": "2025-12-27T04:28:28.422048", "MEAN_MOTION": 14.84932023, "ECCENTRICITY": 0.0004205, "INCLINATION": 74.0274, "RA_OF_ASC_NODE": 70.454, "ARG_OF_PERICENTER": 31.5697, "MEAN_ANOMALY": 328.5733, "EPHEMERIS_TYPE": 0, "CLASSIFICATION_TYPE": "U", "NORAD_CAT_ID": 35442, "ELEMENT_SET_NO": 999, "REV_AT_EPOCH": 87567, "BSTAR": 0.0023136, "MEAN_MOTION_DOT": 0.00019731, "MEAN_MOTION_DDOT": 0}, "tle": {"line1": "1 35442U 93036AKL 25361.18644007  .00019731  00000+0  23136-2 0  9993", "line2": "2 35442  74.0274  70.4540 0004205  31.5697 328.5733 14.84932023875676"}}, "geometry": {"type": "Point", "coordinates": [-104.18198942898596, -19.142178008773147]}}, {"type": "Feature", "properties": {"norad_id": 35443, "name": "COSMOS 2251 DEB", "group": "cosmos-2251-debris", "lat": 2.1042315786637533, "lon": 121.31115205515395, "alt_km": 581.4045803033887, "timestamp": "2025-12-27T08:36:18.780770+00:00", "meta": {"OBJECT_NAME": "COSMOS 2251 DEB", "OBJECT_ID": "1993-036AKM", "EPOCH": "2025-12-27T03:00:49.057920", "MEAN_MOTION": 14.98028112, "ECCENTRICITY": 0.0072382, "INCLINATION": 73.9892, "RA_OF_ASC_NODE": 302.3889, "ARG_OF_PERICENTER": 80.8461, "MEAN_ANOMALY": 280.0904, "EPHEMERIS_TYPE": 0, "CLASSIFICATION_TYPE": "U", "NORAD_CAT_ID": 35443, "ELEMENT_SET_NO": 999, "REV_AT_EPOCH": 87093, "BSTAR": 0.0051441, "MEAN_MOTION_DOT": 0.00064698, "MEAN_MOTION_DDOT": 0}, "tle": {"line1": "1 35443U 93036AKM 25361.12556780  .00064698  00000+0  51441-2 0  9990", "line2": "2 35443  73.9892 302.3889 0072382  80.8461 280.0904 14.98028112870937"}}, "geometry": {"type": "Point", "coordinates": [121.31115205515395, 2.1042315786637533]}}, {"type": "Feature", "properties": {"norad_id": 35445, "name": "COSMOS 2251 DEB", "group": "cosmos-2251-debris", "lat": 12.126031383724664, "lon": -84.33990434545878, "alt_km": 598.4728628203775, "timestamp": "2025-12-27T08:36:18.780780+00:00", "meta": {"OBJECT_NAME": "COSMOS 2251 DEB", "OBJECT_ID": "1993-036AKP", "EPOCH": "2025-12-24T19:40:46.420608", "MEAN_MOTION": 14.59408318, "ECCENTRICITY": 0.01439573, "INCLINATION": 74.0386, "RA_OF_ASC_NODE": 276.9734, "ARG_OF_PERICENTER": 1.0045, "MEAN_ANOMALY": 359.138, "EPHEMERIS_TYPE": 0, "CLASSIFICATION_TYPE": "U", "NORAD_CAT_ID": 35445, "ELEMENT_SET_NO": 999, "REV_AT_EPOCH": 87505, "BSTAR": 0.0021997687, "MEAN_MOTION_DOT": 0.00012035, "MEAN_MOTION_DDOT": 0}, "tle": {"line1": "1 35445U 93036AKP 25358.81998172  .00012035  00000+0  21998-2 0  9991", "line2": "2 35445  74.0386 276.9734 0143957   1.0045 359.1380 14.59408318875055"}}, "geometry": {"type": "Point", "coordinates": [-84.33990434545878, 12.126031383724664]}}]}